start=new Date('2023-05-19T00:00:00.000Z').valueOf();
sats=[{"RCS_SIZE":"LARGE","OBJECT_NAME":"STARLINK-4103","SEMIMAJOR_AXIS":"6917.892","OBJECT_TYPE":"PAYLOAD","TIME_SYSTEM":"UTC","INCLINATION":"53.2163","ELEMENT_SET_NO":"999","REV_AT_EPOCH":"4636","OBJECT_ID":"2022-083K","MEAN_ANOMALY":"265.0851","MEAN_MOTION_DOT":"0.00000666","BSTAR":"0.00005990900000","REF_FRAME":"TEME","CENTER_NAME":"EARTH","CLASSIFICATION_TYPE":"U","MEAN_MOTION_DDOT":"0.0000000000000","DECAY_DATE":null,"PERIAPSIS":"538.903","COUNTRY_CODE":"US","ECCENTRICITY":"0.00012340","EPOCH":"2023-05-18T22:01:30.877536","NORAD_CAT_ID":"53141","MEAN_MOTION":"15.08836290","FILE":"3911388","LAUNCH_DATE":"2022-07-17","ARG_OF_PERICENTER":"95.0282","APOAPSIS":"540.610","EPHEMERIS_TYPE":"0","SITE":"AFETR","RA_OF_ASC_NODE":"98.9898","PERIOD":"95.438","GP_ID":"232115101","MEAN_ELEMENT_THEORY":"SGP4","TLE_LINE1":"1 53141U 22083K   23138.91771849  .00000666  00000-0  59909-4 0  9996","TLE_LINE2":"2 53141  53.2163  98.9898 0001234  95.0282 265.0851 15.08836290 46361"},{"MEAN_ANOMALY":"267.1744","OBJECT_ID":"2022-083L","MEAN_MOTION_DOT":"0.00000269","REV_AT_EPOCH":"4637","TIME_SYSTEM":"UTC","ELEMENT_SET_NO":"999","INCLINATION":"53.2182","RCS_SIZE":"LARGE","OBJECT_NAME":"STARLINK-4101","OBJECT_TYPE":"PAYLOAD","SEMIMAJOR_AXIS":"6917.886","SITE":"AFETR","EPHEMERIS_TYPE":"0","PERIOD":"95.438","RA_OF_ASC_NODE":"98.9357","MEAN_ELEMENT_THEORY":"SGP4","GP_ID":"232116353","TLE_LINE1":"1 53142U 22083L   23138.92875849  .00000269  00000-0  34975-4 0  9998","TLE_LINE2":"2 53142  53.2182  98.9357 0001210  92.9387 267.1744 15.08838056 46376","LAUNCH_DATE":"2022-07-17","APOAPSIS":"540.588","ARG_OF_PERICENTER":"92.9387","COUNTRY_CODE":"US","ECCENTRICITY":"0.00012100","NORAD_CAT_ID":"53142","EPOCH":"2023-05-18T22:17:24.733536","FILE":"3911388","MEAN_MOTION":"15.08838056","CENTER_NAME":"EARTH","BSTAR":"0.00003497500000","REF_FRAME":"TEME","CLASSIFICATION_TYPE":"U","MEAN_MOTION_DDOT":"0.0000000000000","PERIAPSIS":"538.914","DECAY_DATE":null},{"CLASSIFICATION_TYPE":"U","MEAN_MOTION_DDOT":"0.0000000000000","CENTER_NAME":"EARTH","BSTAR":"0.00001014700000","REF_FRAME":"TEME","PERIAPSIS":"538.828","DECAY_DATE":null,"ECCENTRICITY":"0.00013290","COUNTRY_CODE":"US","FILE":"3911388","MEAN_MOTION":"15.08839373","NORAD_CAT_ID":"53143","EPOCH":"2023-05-18T21:56:12.812352","LAUNCH_DATE":"2022-07-17","APOAPSIS":"540.667","ARG_OF_PERICENTER":"90.2817","PERIOD":"95.438","RA_OF_ASC_NODE":"99.0052","SITE":"AFETR","EPHEMERIS_TYPE":"0","TLE_LINE2":"2 53143  53.2175  99.0052 0001329  90.2817 269.8328 15.08839373 46362","TLE_LINE1":"1 53143U 22083M   23138.91403718 -.00000126  00000-0  10147-4 0  9998","MEAN_ELEMENT_THEORY":"SGP4","GP_ID":"232116103","RCS_SIZE":"LARGE","OBJECT_TYPE":"PAYLOAD","SEMIMAJOR_AXIS":"6917.882","OBJECT_NAME":"STARLINK-4102","ELEMENT_SET_NO":"999","INCLINATION":"53.2175","TIME_SYSTEM":"UTC","REV_AT_EPOCH":"4636","MEAN_MOTION_DOT":"-0.00000126","OBJECT_ID":"2022-083M","MEAN_ANOMALY":"269.8328"},{"REV_AT_EPOCH":"4635","MEAN_ANOMALY":"269.4225","OBJECT_ID":"2022-083N","MEAN_MOTION_DOT":"-0.00000208","OBJECT_NAME":"STARLINK-4100","OBJECT_TYPE":"PAYLOAD","SEMIMAJOR_AXIS":"6917.899","RCS_SIZE":"LARGE","TIME_SYSTEM":"UTC","ELEMENT_SET_NO":"999","INCLINATION":"53.2177","APOAPSIS":"540.519","ARG_OF_PERICENTER":"90.6892","LAUNCH_DATE":"2022-07-17","MEAN_ELEMENT_THEORY":"SGP4","GP_ID":"232115352","TLE_LINE2":"2 53144  53.2177  99.2502 0001092  90.6892 269.4225 15.08833936 46351","TLE_LINE1":"1 53144U 22083N   23138.85884042 -.00000208  00000-0  50350-5 0  9997","SITE":"AFETR","EPHEMERIS_TYPE":"0","PERIOD":"95.438","RA_OF_ASC_NODE":"99.2502","PERIAPSIS":"539.008","DECAY_DATE":null,"CENTER_NAME":"EARTH","REF_FRAME":"TEME","BSTAR":"0.00000503500000","CLASSIFICATION_TYPE":"U","MEAN_MOTION_DDOT":"0.0000000000000","NORAD_CAT_ID":"53144","EPOCH":"2023-05-18T20:36:43.812288","FILE":"3911388","MEAN_MOTION":"15.08833936","ECCENTRICITY":"0.00010920","COUNTRY_CODE":"US"},{"APOAPSIS":"540.523","ARG_OF_PERICENTER":"88.3793","LAUNCH_DATE":"2022-07-17","MEAN_ELEMENT_THEORY":"SGP4","GP_ID":"232115602","TLE_LINE1":"1 53145U 22083P   23138.90667658  .00000105  00000-0  24684-4 0  9991","TLE_LINE2":"2 53145  53.2163  99.0366 0001129  88.3793 271.7328 15.08841077 46364","SITE":"AFETR","EPHEMERIS_TYPE":"0","PERIOD":"95.437","RA_OF_ASC_NODE":"99.0366","PERIAPSIS":"538.961","DECAY_DATE":null,"CENTER_NAME":"EARTH","BSTAR":"0.00002468400000","REF_FRAME":"TEME","MEAN_MOTION_DDOT":"0.0000000000000","CLASSIFICATION_TYPE":"U","NORAD_CAT_ID":"53145","EPOCH":"2023-05-18T21:45:36.856512","FILE":"3911388","MEAN_MOTION":"15.08841077","ECCENTRICITY":"0.00011290","COUNTRY_CODE":"US","REV_AT_EPOCH":"4636","OBJECT_ID":"2022-083P","MEAN_ANOMALY":"271.7328","MEAN_MOTION_DOT":"0.00000105","OBJECT_NAME":"STARLINK-4106","OBJECT_TYPE":"PAYLOAD","SEMIMAJOR_AXIS":"6917.877","RCS_SIZE":"MEDIUM","TIME_SYSTEM":"UTC","ELEMENT_SET_NO":"999","INCLINATION":"53.2163"},{"DECAY_DATE":null,"PERIAPSIS":"538.965","CLASSIFICATION_TYPE":"U","MEAN_MOTION_DDOT":"0.0000000000000","REF_FRAME":"TEME","BSTAR":"0.00003618800000","CENTER_NAME":"EARTH","MEAN_MOTION":"15.08840568","FILE":"3911221","EPOCH":"2023-05-18T04:37:33.885984","NORAD_CAT_ID":"53146","ECCENTRICITY":"0.00011250","COUNTRY_CODE":"US","ARG_OF_PERICENTER":"88.2159","APOAPSIS":"540.522","LAUNCH_DATE":"2022-07-17","TLE_LINE1":"1 53146U 22083Q   23138.19275331  .00000288  00000-0  36188-4 0  9990","TLE_LINE2":"2 53146  53.2168 102.2437 0001125  88.2159 271.8962 15.08840568 46254","GP_ID":"232085125","MEAN_ELEMENT_THEORY":"SGP4","RA_OF_ASC_NODE":"102.2437","PERIOD":"95.438","EPHEMERIS_TYPE":"0","SITE":"AFETR","SEMIMAJOR_AXIS":"6917.879","OBJECT_TYPE":"PAYLOAD","OBJECT_NAME":"STARLINK-4099","RCS_SIZE":"LARGE","INCLINATION":"53.2168","ELEMENT_SET_NO":"999","TIME_SYSTEM":"UTC","REV_AT_EPOCH":"4625","MEAN_MOTION_DOT":"0.00000288","MEAN_ANOMALY":"271.8962","OBJECT_ID":"2022-083Q"},{"NORAD_CAT_ID":"53147","EPOCH":"2023-05-18T21:40:19.643232","FILE":"3911388","MEAN_MOTION":"15.08832855","COUNTRY_CODE":"US","ECCENTRICITY":"0.00011760","PERIAPSIS":"538.954","DECAY_DATE":null,"CENTER_NAME":"EARTH","REF_FRAME":"TEME","BSTAR":"-0.00004391000000","MEAN_MOTION_DDOT":"0.0000000000000","CLASSIFICATION_TYPE":"U","MEAN_ELEMENT_THEORY":"SGP4","GP_ID":"232116604","TLE_LINE2":"2 53147  53.2169  99.0566 0001176  91.4330 268.6796 15.08832855 47019","TLE_LINE1":"1 53147U 22083R   23138.90300513 -.00000986  00000-0 -43910-4 0  9999","SITE":"AFETR","EPHEMERIS_TYPE":"0","PERIOD":"95.438","RA_OF_ASC_NODE":"99.0566","APOAPSIS":"540.581","ARG_OF_PERICENTER":"91.4330","LAUNCH_DATE":"2022-07-17","TIME_SYSTEM":"UTC","ELEMENT_SET_NO":"999","INCLINATION":"53.2169","OBJECT_NAME":"STARLINK-4094","OBJECT_TYPE":"PAYLOAD","SEMIMAJOR_AXIS":"6917.902","RCS_SIZE":"LARGE","OBJECT_ID":"2022-083R","MEAN_ANOMALY":"268.6796","MEAN_MOTION_DOT":"-0.00000986","REV_AT_EPOCH":"4701"},{"INCLINATION":"53.2162","ELEMENT_SET_NO":"999","TIME_SYSTEM":"UTC","RCS_SIZE":"LARGE","SEMIMAJOR_AXIS":"6917.889","OBJECT_TYPE":"PAYLOAD","OBJECT_NAME":"STARLINK-4066","MEAN_MOTION_DOT":"0.00000285","OBJECT_ID":"2022-083S","MEAN_ANOMALY":"274.8391","REV_AT_EPOCH":"4636","ECCENTRICITY":"0.00010560","COUNTRY_CODE":"US","MEAN_MOTION":"15.08837216","FILE":"3911388","EPOCH":"2023-05-18T21:52:17.577120","NORAD_CAT_ID":"53148","MEAN_MOTION_DDOT":"0.0000000000000","CLASSIFICATION_TYPE":"U","BSTAR":"0.00003598600000","REF_FRAME":"TEME","CENTER_NAME":"EARTH","DECAY_DATE":null,"PERIAPSIS":"539.023","RA_OF_ASC_NODE":"99.0290","PERIOD":"95.438","EPHEMERIS_TYPE":"0","SITE":"AFETR","TLE_LINE1":"1 53148U 22083S   23138.91131455  .00000285  00000-0  35986-4 0  9992","TLE_LINE2":"2 53148  53.2162  99.0290 0001056  85.2722 274.8391 15.08837216 46363","GP_ID":"232114852","MEAN_ELEMENT_THEORY":"SGP4","LAUNCH_DATE":"2022-07-17","ARG_OF_PERICENTER":"85.2722","APOAPSIS":"540.484"},{"MEAN_ELEMENT_THEORY":"SGP4","GP_ID":"232115102","TLE_LINE1":"1 53149U 22083T   23138.91127944 -.00000019  00000-0  16915-4 0  9998","TLE_LINE2":"2 53149  53.2175  89.0184 0001234  90.1789 269.9345 15.08838536 46501","SITE":"AFETR","EPHEMERIS_TYPE":"0","PERIOD":"95.438","RA_OF_ASC_NODE":"89.0184","APOAPSIS":"540.604","ARG_OF_PERICENTER":"90.1789","LAUNCH_DATE":"2022-07-17","NORAD_CAT_ID":"53149","EPOCH":"2023-05-18T21:52:14.543616","FILE":"3911388","MEAN_MOTION":"15.08838536","COUNTRY_CODE":"US","ECCENTRICITY":"0.00012340","PERIAPSIS":"538.896","DECAY_DATE":null,"CENTER_NAME":"EARTH","REF_FRAME":"TEME","BSTAR":"0.00001691500000","MEAN_MOTION_DDOT":"0.0000000000000","CLASSIFICATION_TYPE":"U","MEAN_ANOMALY":"269.9345","OBJECT_ID":"2022-083T","MEAN_MOTION_DOT":"-0.00000019","REV_AT_EPOCH":"4650","TIME_SYSTEM":"UTC","ELEMENT_SET_NO":"999","INCLINATION":"53.2175","OBJECT_NAME":"STARLINK-4021","OBJECT_TYPE":"PAYLOAD","SEMIMAJOR_AXIS":"6917.885","RCS_SIZE":"LARGE"},{"MEAN_MOTION":"15.08841835","FILE":"3911221","EPOCH":"2023-05-18T06:56:40.321248","NORAD_CAT_ID":"53150","COUNTRY_CODE":"US","ECCENTRICITY":"0.00008650","DECAY_DATE":null,"PERIAPSIS":"539.141","CLASSIFICATION_TYPE":"U","MEAN_MOTION_DDOT":"0.0000000000000","REF_FRAME":"TEME","BSTAR":"-0.00003881700000","CENTER_NAME":"EARTH","TLE_LINE1":"1 53150U 22083U   23138.28935557 -.00000905  00000-0 -38817-4 0  9997","TLE_LINE2":"2 53150  53.2167  91.8115 0000865  93.0880 267.0211 15.08841835 46408","GP_ID":"232084625","MEAN_ELEMENT_THEORY":"SGP4","RA_OF_ASC_NODE":"91.8115","PERIOD":"95.437","EPHEMERIS_TYPE":"0","SITE":"AFETR","ARG_OF_PERICENTER":"93.0880","APOAPSIS":"540.338","LAUNCH_DATE":"2022-07-17","INCLINATION":"53.2167","ELEMENT_SET_NO":"999","TIME_SYSTEM":"UTC","SEMIMAJOR_AXIS":"6917.875","OBJECT_TYPE":"PAYLOAD","OBJECT_NAME":"STARLINK-4038","RCS_SIZE":"LARGE","MEAN_MOTION_DOT":"-0.00000905","MEAN_ANOMALY":"267.0211","OBJECT_ID":"2022-083U","REV_AT_EPOCH":"4640"}];
